{"spkid": "20793349", "covariance": {"epoch": "2458997.5", "data": [["1.122452302814155E-15", "-2.022249769424755E-15", "-2.423412873014588E-14", "-6.485414377560914E-15", "-9.960062917553609E-14", "-5.175883748625584E-14"], ["-2.022249769424755E-15", "3.643696091826843E-15", "4.188237768410658E-14", "1.177047285964399E-14", "1.784198615322208E-13", "9.337742210904189E-14"], ["-2.423412873014588E-14", "4.188237768410658E-14", "3.706713945726982E-11", "8.080153688974432E-13", "3.873492468950056E-11", "-4.265784135777861E-12"], ["-6.485414377560914E-15", "1.177047285964399E-14", "8.080153688974432E-13", "5.99219985591211E-11", "-5.883725884058661E-11", "-2.644009532085859E-12"], ["-9.960062917553609E-14", "1.784198615322208E-13", "3.873492468950056E-11", "-5.883725884058661E-11", "1.120106312074939E-10", "-1.723511971418146E-12"], ["-5.175883748625584E-14", "9.337742210904189E-14", "-4.265784135777861E-12", "-2.644009532085859E-12", "-1.723511971418146E-12", "1.219341755191522E-10"]], "elements": [{"sigma": 3.35030193089243e-08, "name": "e", "value": ".5638398886949763", "title": "eccentricity", "units": null, "label": "e"}, {"units": "au", "title": "perihelion distance", "value": ".7949831141677923", "name": "q", "sigma": 6.03630358069145e-08, "label": "q"}, {"label": "tp", "title": "time of perihelion passage", "value": "2459003.880821330702", "units": "TDB", "sigma": 6.08827885836957e-06, "name": "tp"}, {"label": "node", "sigma": 7.74093008359597e-06, "name": "om", "units": "deg", "value": "275.0201933871455", "title": "longitude of the ascending node"}, {"label": "peri", "sigma": 1.05835075096819e-05, "name": "w", "units": "deg", "title": "argument of perihelion", "value": "285.9570019259373"}, {"units": "deg", "value": "10.3227003630498", "title": "inclination", "sigma": 1.1042380880913e-05, "name": "i", "label": "i"}], "labels": ["e", "q", "tp", "node", "peri", "i"]}, "elements": [{"label": "e", "name": "e", "sigma": "3.3733E-8", "title": "eccentricity", "value": ".5636545088715795", "units": null}, {"title": "semi-major axis", "value": "1.825084779491195", "units": "au", "sigma": "4.0162E-9", "name": "a", "label": "a"}, {"title": "perihelion distance", "value": ".7963675144580904", "units": "au", "name": "q", "sigma": "6.0284E-8", "label": "q"}, {"value": "10.33501550873519", "title": "inclination; angle with respect to x-y ecliptic plane", "units": "deg", "name": "i", "sigma": "1.1047E-5", "label": "i"}, {"name": "om", "sigma": "7.7209E-6", "title": "longitude of the ascending node", "value": "274.8478308071651", "units": "deg", "label": "node"}, {"units": "deg", "value": "286.1673995338238", "title": "argument of perihelion", "sigma": "1.0641E-5", "name": "w", "label": "peri"}, {"label": "M", "units": "deg", "title": "mean anomaly", "value": "159.414702864069", "name": "ma", "sigma": "2.6604E-6"}, {"sigma": "5.8707E-6", "name": "tp", "value": "2460801.705770949029", "title": "time of perihelion passage", "units": "TDB", "label": "tp"}, {"label": "period", "name": "per", "sigma": "2.9727E-6", "title": "sidereal orbital period", "value": "900.5814387194038", "units": "d"}, {"label": "n", "name": "n", "sigma": "1.3195E-9", "units": "deg/d", "title": "mean motion", "value": ".399741749632224"}, {"sigma": "6.28E-9", "name": "ad", "units": "au", "title": "aphelion distance", "value": "2.853802044524299", "label": "Q"}], "epoch": "2461200.5"}